ONEWEB-0615             
1 54676U 22166AL  23293.44533519  .00006119  00000+0  14781-1 0  9996
2 54676  87.9223  77.2368 0001923  95.1994 264.9360 13.21801349 43207
ONEWEB-0655             
1 54677U 22166AM  23293.41857485 -.00005676  00000+0 -13780-1 0  9992
2 54677  87.9203  77.2480 0002096  95.0435 265.0938 13.21837279 43194
ONEWEB-0659             
1 54678U 22166AN  23293.43588708 -.00000331  00000+0 -83269-3 0  9998
2 54678  87.9187  77.2712 0001377  89.2767 270.8524 13.21827102 43759
ONEWEB-0685             
1 54679U 22166AP  23293.43747886 -.00006747  00000+0 -16374-1 0  9991
2 54679  87.9204  77.2373 0002592 104.2707 255.8715 13.21855552 43176
ONEWEB-0712             
1 54680U 22166AQ  23293.38200238  .00000020  00000+0  18298-4 0  9998
2 54680  87.9204  61.9445 0001573  81.5105 278.6204 13.16593779 44312
ONEWEB-0714             
1 54681U 22166AR  23293.44374954  .00009647  00000+0  23320-1 0  9996
2 54681  87.9215  77.2265 0002093  97.1553 262.9819 13.21773172 43290
ONEWEB-0532             
1 55140U 23004A   23293.26443213 -.00000098  00000+0 -28553-3 0  9992
2 55140  87.9255 198.8203 0001279 102.4297 257.6978 13.17646457 39727
